[
  {
    "OBJECT_NAME": "STARLINK-1159",
    "OBJECT_ID": "20006P",
    "EPOCH": "2025-11-11T08:00:03.000384",
    "MEAN_MOTION": 15.45271307,
    "ECCENTRICITY": 9.89e-05,
    "INCLINATION": 53.0548,
    "RA_OF_ASC_NODE": 94.9353,
    "ARG_OF_PERICENTER": 89.2465,
    "MEAN_ANOMALY": 95.8313,
    "EPHEMERIS_TYPE": 0,
    "CLASSIFICATION_TYPE": "U",
    "NORAD_CAT_ID": 45057,
    "ELEMENT_SET_NO": 999,
    "REV_AT_EPOCH": 575,
    "BSTAR": 0.025301000000000004,
    "MEAN_MOTION_DOT": 0.01339935,
    "MEAN_MOTION_DDOT": 0.0,
    "TLE_LINE1": "1 45057U 20006P   25315.33336806  .01339935  00000+0  25301-1 0  9991",
    "TLE_LINE2": "2 45057  53.0548  94.9353 0000989  89.2465  95.8313 15.45271307  5752",
    "COMMENT": "Grouped by shell and plane from TLE"
  },
  {
    "OBJECT_NAME": "STARLINK-1171",
    "OBJECT_ID": "20006U",
    "EPOCH": "2025-11-11T08:00:03.000384",
    "MEAN_MOTION": 15.34966793,
    "ECCENTRICITY": 0.0003708,
    "INCLINATION": 53.0542,
    "RA_OF_ASC_NODE": 93.5647,
    "ARG_OF_PERICENTER": 313.5021,
    "MEAN_ANOMALY": 197.0583,
    "EPHEMERIS_TYPE": 0,
    "CLASSIFICATION_TYPE": "U",
    "NORAD_CAT_ID": 45062,
    "ELEMENT_SET_NO": 999,
    "REV_AT_EPOCH": 576,
    "BSTAR": 0.0041342,
    "MEAN_MOTION_DOT": 0.00144634,
    "MEAN_MOTION_DDOT": 0.0,
    "TLE_LINE1": "1 45062U 20006U   25315.33336806  .00144634  00000+0  41342-2 0  9990",
    "TLE_LINE2": "2 45062  53.0542  93.5647 0003708 313.5021 197.0583 15.34966793  5769",
    "COMMENT": "Grouped by shell and plane from TLE"
  },
  {
    "OBJECT_NAME": "STARLINK-1621",
    "OBJECT_ID": "20057L",
    "EPOCH": "2025-11-10T19:38:34.870560",
    "MEAN_MOTION": 15.42975119,
    "ECCENTRICITY": 0.0008258,
    "INCLINATION": 53.0508,
    "RA_OF_ASC_NODE": 99.6394,
    "ARG_OF_PERICENTER": 223.7817,
    "MEAN_ANOMALY": 136.2534,
    "EPHEMERIS_TYPE": 0,
    "CLASSIFICATION_TYPE": "U",
    "NORAD_CAT_ID": 46127,
    "ELEMENT_SET_NO": 999,
    "REV_AT_EPOCH": 28857,
    "BSTAR": 0.0013170000000000002,
    "MEAN_MOTION_DOT": 0.00059002,
    "MEAN_MOTION_DDOT": 0.0,
    "TLE_LINE1": "1 46127U 20057L   25314.81845915  .00059002  00000+0  13170-2 0  9999",
    "TLE_LINE2": "2 46127  53.0508  99.6394 0008258 223.7817 136.2534 15.42975119288574",
    "COMMENT": "Grouped by shell and plane from TLE"
  },
  {
    "OBJECT_NAME": "STARLINK-1629",
    "OBJECT_ID": "20057AK",
    "EPOCH": "2025-11-11T08:00:03.000384",
    "MEAN_MOTION": 15.53264921,
    "ECCENTRICITY": 0.0009925,
    "INCLINATION": 53.0296,
    "RA_OF_ASC_NODE": 90.0273,
    "ARG_OF_PERICENTER": 195.1977,
    "MEAN_ANOMALY": 212.5677,
    "EPHEMERIS_TYPE": 0,
    "CLASSIFICATION_TYPE": "U",
    "NORAD_CAT_ID": 46150,
    "ELEMENT_SET_NO": 999,
    "REV_AT_EPOCH": 566,
    "BSTAR": 0.0022909,
    "MEAN_MOTION_DOT": 0.00149357,
    "MEAN_MOTION_DDOT": 0.0,
    "TLE_LINE1": "1 46150U 20057AK  25315.33336806  .00149357  00000+0  22909-2 0  9990",
    "TLE_LINE2": "2 46150  53.0296  90.0273 0009925 195.1977 212.5677 15.53264921  5663",
    "COMMENT": "Grouped by shell and plane from TLE"
  },
  {
    "OBJECT_NAME": "STARLINK-1642",
    "OBJECT_ID": "20057AP",
    "EPOCH": "2025-11-11T08:00:03.000384",
    "MEAN_MOTION": 15.49077222,
    "ECCENTRICITY": 0.0007745,
    "INCLINATION": 53.0484,
    "RA_OF_ASC_NODE": 98.247,
    "ARG_OF_PERICENTER": 168.5522,
    "MEAN_ANOMALY": 24.5254,
    "EPHEMERIS_TYPE": 0,
    "CLASSIFICATION_TYPE": "U",
    "NORAD_CAT_ID": 46154,
    "ELEMENT_SET_NO": 999,
    "REV_AT_EPOCH": 585,
    "BSTAR": 0.0038695,
    "MEAN_MOTION_DOT": 0.00219306,
    "MEAN_MOTION_DDOT": 0.0,
    "TLE_LINE1": "1 46154U 20057AP  25315.33336806  .00219306  00000+0  38695-2 0  9995",
    "TLE_LINE2": "2 46154  53.0484  98.2470 0007745 168.5522  24.5254 15.49077222  5857",
    "COMMENT": "Grouped by shell and plane from TLE"
  },
  {
    "OBJECT_NAME": "STARLINK-30301",
    "OBJECT_ID": "23124D",
    "EPOCH": "2025-11-11T02:23:56.536224",
    "MEAN_MOTION": 15.30802675,
    "ECCENTRICITY": 0.0001005,
    "INCLINATION": 53.157,
    "RA_OF_ASC_NODE": 99.615,
    "ARG_OF_PERICENTER": 62.472,
    "MEAN_ANOMALY": 297.6383,
    "EPHEMERIS_TYPE": 0,
    "CLASSIFICATION_TYPE": "U",
    "NORAD_CAT_ID": 57666,
    "ELEMENT_SET_NO": 999,
    "REV_AT_EPOCH": 12451,
    "BSTAR": 0.00073032,
    "MEAN_MOTION_DOT": 0.00021741,
    "MEAN_MOTION_DDOT": 0.0,
    "TLE_LINE1": "1 57666U 23124D   25315.09995991  .00021741  00000+0  73032-3 0  9991",
    "TLE_LINE2": "2 57666  53.1570  99.6150 0001005  62.4720 297.6383 15.30802675124518",
    "COMMENT": "Grouped by shell and plane from TLE"
  },
  {
    "OBJECT_NAME": "STARLINK-31305",
    "OBJECT_ID": "24049B",
    "EPOCH": "2025-11-11T02:42:20.420640",
    "MEAN_MOTION": 15.2757401,
    "ECCENTRICITY": 0.0002144,
    "INCLINATION": 43.0035,
    "RA_OF_ASC_NODE": 92.9722,
    "ARG_OF_PERICENTER": 273.4086,
    "MEAN_ANOMALY": 86.652,
    "EPHEMERIS_TYPE": 0,
    "CLASSIFICATION_TYPE": "U",
    "NORAD_CAT_ID": 59232,
    "ELEMENT_SET_NO": 999,
    "REV_AT_EPOCH": 9425,
    "BSTAR": 0.00011111,
    "MEAN_MOTION_DOT": 2.796e-05,
    "MEAN_MOTION_DDOT": 0.0,
    "TLE_LINE1": "1 59232U 24049B   25315.11273635  .00002796  00000+0  11111-3 0  9995",
    "TLE_LINE2": "2 59232  43.0035  92.9722 0002144 273.4086  86.6520 15.27574010 94259",
    "COMMENT": "Grouped by shell and plane from TLE"
  },
  {
    "OBJECT_NAME": "STARLINK-31459",
    "OBJECT_ID": "24049C",
    "EPOCH": "2025-11-10T16:05:27.452832",
    "MEAN_MOTION": 15.27588871,
    "ECCENTRICITY": 0.000234,
    "INCLINATION": 43.0016,
    "RA_OF_ASC_NODE": 95.6906,
    "ARG_OF_PERICENTER": 279.9978,
    "MEAN_ANOMALY": 80.0609,
    "EPHEMERIS_TYPE": 0,
    "CLASSIFICATION_TYPE": "U",
    "NORAD_CAT_ID": 59233,
    "ELEMENT_SET_NO": 999,
    "REV_AT_EPOCH": 9419,
    "BSTAR": 1.666e-05,
    "MEAN_MOTION_DOT": 1.96e-06,
    "MEAN_MOTION_DDOT": 0.0,
    "TLE_LINE1": "1 59233U 24049C   25314.67045663  .00000196  00000+0  16660-4 0  9991",
    "TLE_LINE2": "2 59233  43.0016  95.6906 0002340 279.9978  80.0609 15.27588871 94191",
    "COMMENT": "Grouped by shell and plane from TLE"
  },
  {
    "OBJECT_NAME": "STARLINK-31467",
    "OBJECT_ID": "24049E",
    "EPOCH": "2025-11-10T16:01:44.921856",
    "MEAN_MOTION": 15.27590178,
    "ECCENTRICITY": 0.0001786,
    "INCLINATION": 43.0009,
    "RA_OF_ASC_NODE": 95.6702,
    "ARG_OF_PERICENTER": 271.1401,
    "MEAN_ANOMALY": 88.9246,
    "EPHEMERIS_TYPE": 0,
    "CLASSIFICATION_TYPE": "U",
    "NORAD_CAT_ID": 59235,
    "ELEMENT_SET_NO": 999,
    "REV_AT_EPOCH": 9420,
    "BSTAR": 8.4653e-05,
    "MEAN_MOTION_DOT": 2.069e-05,
    "MEAN_MOTION_DDOT": 0.0,
    "TLE_LINE1": "1 59235U 24049E   25314.66788104  .00002069  00000+0  84653-4 0  9994",
    "TLE_LINE2": "2 59235  43.0009  95.6702 0001786 271.1401  88.9246 15.27590178 94206",
    "COMMENT": "Grouped by shell and plane from TLE"
  },
  {
    "OBJECT_NAME": "STARLINK-31505",
    "OBJECT_ID": "24049G",
    "EPOCH": "2025-11-10T11:28:32.832192",
    "MEAN_MOTION": 15.27595308,
    "ECCENTRICITY": 0.0001814,
    "INCLINATION": 43.0002,
    "RA_OF_ASC_NODE": 96.8368,
    "ARG_OF_PERICENTER": 285.2741,
    "MEAN_ANOMALY": 74.791,
    "EPHEMERIS_TYPE": 0,
    "CLASSIFICATION_TYPE": "U",
    "NORAD_CAT_ID": 59237,
    "ELEMENT_SET_NO": 999,
    "REV_AT_EPOCH": 9417,
    "BSTAR": 0.00013966,
    "MEAN_MOTION_DOT": 3.585e-05,
    "MEAN_MOTION_DDOT": 0.0,
    "TLE_LINE1": "1 59237U 24049G   25314.47815778  .00003585  00000+0  13966-3 0  9995",
    "TLE_LINE2": "2 59237  43.0002  96.8368 0001814 285.2741  74.7910 15.27595308 94174",
    "COMMENT": "Grouped by shell and plane from TLE"
  },
  {
    "OBJECT_NAME": "STARLINK-31494",
    "OBJECT_ID": "24049H",
    "EPOCH": "2025-11-10T09:22:55.570944",
    "MEAN_MOTION": 15.275837,
    "ECCENTRICITY": 0.0001529,
    "INCLINATION": 43.0026,
    "RA_OF_ASC_NODE": 97.0306,
    "ARG_OF_PERICENTER": 251.3289,
    "MEAN_ANOMALY": 108.7397,
    "EPHEMERIS_TYPE": 0,
    "CLASSIFICATION_TYPE": "U",
    "NORAD_CAT_ID": 59238,
    "ELEMENT_SET_NO": 999,
    "REV_AT_EPOCH": 9416,
    "BSTAR": 4.958e-05,
    "MEAN_MOTION_DOT": 1.102e-05,
    "MEAN_MOTION_DDOT": 0.0,
    "TLE_LINE1": "1 59238U 24049H   25314.39092096  .00001102  00000+0  49580-4 0  9992",
    "TLE_LINE2": "2 59238  43.0026  97.0306 0001529 251.3289 108.7397 15.27583700 94169",
    "COMMENT": "Grouped by shell and plane from TLE"
  },
  {
    "OBJECT_NAME": "STARLINK-31408",
    "OBJECT_ID": "24049K",
    "EPOCH": "2025-11-11T02:01:50.430144",
    "MEAN_MOTION": 15.27584799,
    "ECCENTRICITY": 0.0001571,
    "INCLINATION": 43.0005,
    "RA_OF_ASC_NODE": 93.6427,
    "ARG_OF_PERICENTER": 280.9985,
    "MEAN_ANOMALY": 79.069,
    "EPHEMERIS_TYPE": 0,
    "CLASSIFICATION_TYPE": "U",
    "NORAD_CAT_ID": 59240,
    "ELEMENT_SET_NO": 999,
    "REV_AT_EPOCH": 9426,
    "BSTAR": 5.7891000000000005e-05,
    "MEAN_MOTION_DOT": 1.331e-05,
    "MEAN_MOTION_DDOT": 0.0,
    "TLE_LINE1": "1 59240U 24049K   25315.08461146  .00001331  00000+0  57891-4 0  9996",
    "TLE_LINE2": "2 59240  43.0005  93.6427 0001571 280.9985  79.0690 15.27584799 94269",
    "COMMENT": "Grouped by shell and plane from TLE"
  },
  {
    "OBJECT_NAME": "STARLINK-31427",
    "OBJECT_ID": "24049L",
    "EPOCH": "2025-11-11T02:07:23.148768",
    "MEAN_MOTION": 15.27586024,
    "ECCENTRICITY": 0.0001568,
    "INCLINATION": 42.9997,
    "RA_OF_ASC_NODE": 93.6415,
    "ARG_OF_PERICENTER": 276.2088,
    "MEAN_ANOMALY": 83.8585,
    "EPHEMERIS_TYPE": 0,
    "CLASSIFICATION_TYPE": "U",
    "NORAD_CAT_ID": 59241,
    "ELEMENT_SET_NO": 999,
    "REV_AT_EPOCH": 9426,
    "BSTAR": 4.4157000000000004e-05,
    "MEAN_MOTION_DOT": 9.53e-06,
    "MEAN_MOTION_DDOT": 0.0,
    "TLE_LINE1": "1 59241U 24049L   25315.08846237  .00000953  00000+0  44157-4 0  9995",
    "TLE_LINE2": "2 59241  42.9997  93.6415 0001568 276.2088  83.8585 15.27586024 94262",
    "COMMENT": "Grouped by shell and plane from TLE"
  }
]